{
  "type": "FeatureCollection",
  "features": [
    {
      "type": "Feature",
      "properties": {
        "norad_id": 36585,
        "name": "GPS BIIF-1  (PRN 25)",
        "group": "gnss",
        "lat": 52.913528078454476,
        "lon": -72.17729707480795,
        "alt_km": 19850.963611206775,
        "timestamp": "2025-12-18T13:51:49.923016+00:00",
        "meta_object_name": "GPS BIIF-1  (PRN 25)",
        "meta_object_id": "2010-022A",
        "meta_epoch": "2025-12-18T05:21:58.347936",
        "meta_mean_motion": 2.00553561,
        "meta_eccentricity": 0.01263418,
        "meta_inclination": 54.2992,
        "meta_ra_of_asc_node": 215.8527,
        "meta_arg_of_pericenter": 65.143,
        "meta_mean_anomaly": 118.1807,
        "meta_ephemeris_type": 0,
        "meta_classification_type": "U",
        "meta_norad_cat_id": 36585,
        "meta_element_set_no": 999,
        "meta_rev_at_epoch": 11396,
        "meta_bstar": 0,
        "meta_mean_motion_dot": 8.3e-07,
        "meta_mean_motion_ddot": 0,
        "tle_line1": "1 36585U 10022A   25352.22359199  .00000083  00000+0  00000+0 0  9998",
        "tle_line2": "2 36585  54.2992 215.8527 0126341  65.1430 118.1807  2.00553561113969"
      },
      "geometry": {
        "type": "Point",
        "coordinates": [
          -72.17729707480795,
          52.913528078454476
        ]
      }
    },
    {
      "type": "Feature",
      "properties": {
        "norad_id": 36828,
        "name": "BEIDOU-2 IGSO-1 (C06)",
        "group": "gnss",
        "lat": -44.05436447381428,
        "lon": 28.786033843180082,
        "alt_km": 35591.86987339603,
        "timestamp": "2025-12-18T13:51:49.923027+00:00",
        "meta_object_name": "BEIDOU-2 IGSO-1 (C06)",
        "meta_object_id": "2010-036A",
        "meta_epoch": "2025-12-14T21:38:21.623424",
        "meta_mean_motion": 1.00275796,
        "meta_eccentricity": 0.00512569,
        "meta_inclination": 54.2866,
        "meta_ra_of_asc_node": 164.6279,
        "meta_arg_of_pericenter": 215.8888,
        "meta_mean_anomaly": 135.7931,
        "meta_ephemeris_type": 0,
        "meta_classification_type": "U",
        "meta_norad_cat_id": 36828,
        "meta_element_set_no": 999,
        "meta_rev_at_epoch": 5624,
        "meta_bstar": 0,
        "meta_mean_motion_dot": -2.4e-07,
        "meta_mean_motion_ddot": 0,
        "tle_line1": "1 36828U 10036A   25348.90163916 -.00000024  00000+0  00000+0 0  9999",
        "tle_line2": "2 36828  54.2866 164.6279 0051256 215.8888 135.7931  1.00275796 56247"
      },
      "geometry": {
        "type": "Point",
        "coordinates": [
          28.786033843180082,
          -44.05436447381428
        ]
      }
    },
    {
      "type": "Feature",
      "properties": {
        "norad_id": 37210,
        "name": "BEIDOU-2 G4 (C04)",
        "group": "gnss",
        "lat": 1.4034240813203953,
        "lon": 95.40632865979953,
        "alt_km": 35829.115280773454,
        "timestamp": "2025-12-18T13:51:49.923041+00:00",
        "meta_object_name": "BEIDOU-2 G4 (C04)",
        "meta_object_id": "2010-057A",
        "meta_epoch": "2025-12-18T05:29:48.091776",
        "meta_mean_motion": 1.00272036,
        "meta_eccentricity": 0.00104836,
        "meta_inclination": 3.1978,
        "meta_ra_of_asc_node": 69.919,
        "meta_arg_of_pericenter": 192.3897,
        "meta_mean_anomaly": 67.3167,
        "meta_ephemeris_type": 0,
        "meta_classification_type": "U",
        "meta_norad_cat_id": 37210,
        "meta_element_set_no": 999,
        "meta_rev_at_epoch": 5547,
        "meta_bstar": 0,
        "meta_mean_motion_dot": -8.9e-07,
        "meta_mean_motion_ddot": 0,
        "tle_line1": "1 37210U 10057A   25352.22902884 -.00000089  00000+0  00000+0 0  9994",
        "tle_line2": "2 37210   3.1978  69.9190 0010483 192.3897  67.3167  1.00272036 55474"
      },
      "geometry": {
        "type": "Point",
        "coordinates": [
          95.40632865979953,
          1.4034240813203953
        ]
      }
    },
    {
      "type": "Feature",
      "properties": {
        "norad_id": 37256,
        "name": "BEIDOU-2 IGSO-2 (C07)",
        "group": "gnss",
        "lat": 35.44891377099314,
        "lon": 54.05348225445896,
        "alt_km": 35768.79894333904,
        "timestamp": "2025-12-18T13:51:49.923053+00:00",
        "meta_object_name": "BEIDOU-2 IGSO-2 (C07)",
        "meta_object_id": "2010-068A",
        "meta_epoch": "2025-12-17T17:15:44.928000",
        "meta_mean_motion": 1.00285242,
        "meta_eccentricity": 0.00482968,
        "meta_inclination": 47.8766,
        "meta_ra_of_asc_node": 274.0874,
        "meta_arg_of_pericenter": 216.3076,
        "meta_mean_anomaly": 322.9541,
        "meta_ephemeris_type": 0,
        "meta_classification_type": "U",
        "meta_norad_cat_id": 37256,
        "meta_element_set_no": 999,
        "meta_rev_at_epoch": 5497,
        "meta_bstar": 0,
        "meta_mean_motion_dot": -2.07e-06,
        "meta_mean_motion_ddot": 0,
        "tle_line1": "1 37256U 10068A   25351.71927000 -.00000207  00000+0  00000+0 0  9998",
        "tle_line2": "2 37256  47.8766 274.0874 0048296 216.3076 322.9541  1.00285242 54974"
      },
      "geometry": {
        "type": "Point",
        "coordinates": [
          54.05348225445896,
          35.44891377099314
        ]
      }
    },
    {
      "type": "Feature",
      "properties": {
        "norad_id": 37384,
        "name": "BEIDOU-2 IGSO-3 (C08)",
        "group": "gnss",
        "lat": 0.8030473343348926,
        "lon": 42.32492804449658,
        "alt_km": 35935.33669193431,
        "timestamp": "2025-12-18T13:51:49.923066+00:00",
        "meta_object_name": "BEIDOU-2 IGSO-3 (C08)",
        "meta_object_id": "2011-013A",
        "meta_epoch": "2025-12-17T16:16:10.103808",
        "meta_mean_motion": 1.00269735,
        "meta_eccentricity": 0.00353562,
        "meta_inclination": 62.15,
        "meta_ra_of_asc_node": 41.8689,
        "meta_arg_of_pericenter": 187.938,
        "meta_mean_anomaly": 208.2285,
        "meta_ephemeris_type": 0,
        "meta_classification_type": "U",
        "meta_norad_cat_id": 37384,
        "meta_element_set_no": 999,
        "meta_rev_at_epoch": 5384,
        "meta_bstar": 0,
        "meta_mean_motion_dot": -1.79e-06,
        "meta_mean_motion_ddot": 0,
        "tle_line1": "1 37384U 11013A   25351.67789472 -.00000179  00000+0  00000+0 0  9993",
        "tle_line2": "2 37384  62.1500  41.8689 0035356 187.9380 208.2285  1.00269735 53845"
      },
      "geometry": {
        "type": "Point",
        "coordinates": [
          42.32492804449658,
          0.8030473343348926
        ]
      }
    },
    {
      "type": "Feature",
      "properties": {
        "norad_id": 37605,
        "name": "GSAT-8 (GAGAN/PRN 127)",
        "group": "gnss",
        "lat": -1.6605012710010445,
        "lon": -9.428331990158608,
        "alt_km": 35780.889502099424,
        "timestamp": "2025-12-18T13:51:49.923079+00:00",
        "meta_object_name": "GSAT-8 (GAGAN/PRN 127)",
        "meta_object_id": "2011-022A",
        "meta_epoch": "2025-12-18T01:34:17.690592",
        "meta_mean_motion": 1.00271807,
        "meta_eccentricity": 0.00086629,
        "meta_inclination": 1.6628,
        "meta_ra_of_asc_node": 84.1397,
        "meta_arg_of_pericenter": 184.8217,
        "meta_mean_anomaly": 256.632,
        "meta_ephemeris_type": 0,
        "meta_classification_type": "U",
        "meta_norad_cat_id": 37605,
        "meta_element_set_no": 999,
        "meta_rev_at_epoch": 5140,
        "meta_bstar": 0,
        "meta_mean_motion_dot": 1.08e-06,
        "meta_mean_motion_ddot": 0,
        "tle_line1": "1 37605U 11022A   25352.06548253  .00000108  00000+0  00000+0 0  9994",
        "tle_line2": "2 37605   1.6628  84.1397 0008662 184.8217 256.6320  1.00271807 51401"
      },
      "geometry": {
        "type": "Point",
        "coordinates": [
          -9.428331990158608,
          -1.6605012710010445
        ]
      }
    },
    {
      "type": "Feature",
      "properties": {
        "norad_id": 37763,
        "name": "BEIDOU-2 IGSO-4 (C09)",
        "group": "gnss",
        "lat": -33.349864483756974,
        "lon": 15.262039262034012,
        "alt_km": 35164.41373601626,
        "timestamp": "2025-12-18T13:51:49.923092+00:00",
        "meta_object_name": "BEIDOU-2 IGSO-4 (C09)",
        "meta_object_id": "2011-038A",
        "meta_epoch": "2025-12-17T23:29:21.564384",
        "meta_mean_motion": 1.00281312,
        "meta_eccentricity": 0.01493143,
        "meta_inclination": 54.5836,
        "meta_ra_of_asc_node": 167.2999,
        "meta_arg_of_pericenter": 230.2426,
        "meta_mean_anomaly": 136.1954,
        "meta_ephemeris_type": 0,
        "meta_classification_type": "U",
        "meta_norad_cat_id": 37763,
        "meta_element_set_no": 999,
        "meta_rev_at_epoch": 5283,
        "meta_bstar": 0,
        "meta_mean_motion_dot": 6.5e-07,
        "meta_mean_motion_ddot": 0,
        "tle_line1": "1 37763U 11038A   25351.97872181  .00000065  00000+0  00000+0 0  9997",
        "tle_line2": "2 37763  54.5836 167.2999 0149314 230.2426 136.1954  1.00281312 52838"
      },
      "geometry": {
        "type": "Point",
        "coordinates": [
          15.262039262034012,
          -33.349864483756974
        ]
      }
    }
  ]
}